{
    "links": {
        "self": "http://www.neowsapp.com/rest/v1/neo/3715369?api_key=iIulBulltgU6a56xZRHN4H3l9WmuAYTsLGpBGhQ2"
    },
    "id": "3715369",
    "neo_reference_id": "3715369",
    "name": "(2015 FQ332)",
    "designation": "2015 FQ332",
    "nasa_jpl_url": "http://ssd.jpl.nasa.gov/sbdb.cgi?sstr=3715369",
    "absolute_magnitude_h": 25.2,
    "estimated_diameter": {
        "kilometers": {
            "estimated_diameter_min": 0.0242412481,
            "estimated_diameter_max": 0.0542050786
        },
        "meters": {
            "estimated_diameter_min": 24.2412481101,
            "estimated_diameter_max": 54.2050786336
        },
        "miles": {
            "estimated_diameter_min": 0.0150628086,
            "estimated_diameter_max": 0.0336814639
        },
        "feet": {
            "estimated_diameter_min": 79.5316564495,
            "estimated_diameter_max": 177.8381901842
        }
    },
    "is_potentially_hazardous_asteroid": false,
    "close_approach_data": [
        {
            "close_approach_date": "2015-03-04",
            "close_approach_date_full": "2015-Mar-04 11:37",
            "epoch_date_close_approach": 1425469020000,
            "relative_velocity": {
                "kilometers_per_second": "6.8440498264",
                "kilometers_per_hour": "24638.5793748633",
                "miles_per_hour": "15309.4550565644"
            },
            "miss_distance": {
                "astronomical": "0.0099130168",
                "lunar": "3.8561635352",
                "kilometers": "1482966.198554216",
                "miles": "921472.4665355408"
            },
            "orbiting_body": "Earth"
        },
        {
            "close_approach_date": "2019-12-26",
            "close_approach_date_full": "2019-Dec-26 05:54",
            "epoch_date_close_approach": 1577339640000,
            "relative_velocity": {
                "kilometers_per_second": "16.9226813326",
                "kilometers_per_hour": "60921.6527971915",
                "miles_per_hour": "37854.3458727883"
            },
            "miss_distance": {
                "astronomical": "0.3200536015",
                "lunar": "124.5008509835",
                "kilometers": "47879337.070228805",
                "miles": "29750840.490635309"
            },
            "orbiting_body": "Earth"
        }
    ],
    "orbital_data": {
        "orbit_id": "8",
        "orbit_determination_date": "2017-04-06 08:34:37",
        "first_observation_date": "2015-03-28",
        "last_observation_date": "2015-04-18",
        "data_arc_in_days": 21,
        "observations_used": 19,
        "orbit_uncertainty": "7",
        "minimum_orbit_intersection": ".00329936",
        "jupiter_tisserand_invariant": "3.898",
        "epoch_osculation": "2459000.5",
        "eccentricity": ".4661333063354494",
        "semi_major_axis": "1.824812336526519",
        "inclination": "2.713036264276939",
        "ascending_node_longitude": "171.8649147134196",
        "orbital_period": "900.3797922596211",
        "perihelion_distance": ".9742065286596959",
        "perihelion_argument": "335.7736530088429",
        "aphelion_distance": "2.675418144393342",
        "perihelion_time": "2458873.973031298297",
        "mean_anomaly": "50.58943917244075",
        "mean_motion": ".3998312746408189",
        "equinox": "J2000",
        "orbit_class": {
            "orbit_class_type": "APO",
            "orbit_class_description": "Near-Earth asteroid orbits which cross the Earth’s orbit similar to that of 1862 Apollo",
            "orbit_class_range": "a (semi-major axis) > 1.0 AU; q (perihelion) < 1.017 AU"
        }
    },
    "is_sentry_object": false
}